[
    {
        "Altitude(m)": 706529.8279481279,
        "Argument of Periapsis(deg)": 0.004556048474650827,
        "Eccentricity": 0.0,
        "Inclination(deg)": 45.0,
        "Latitude(deg)": -14.80256758451745,
        "Longitude(deg)": 74.9476354284174,
        "Mean Anomaly(deg)": -159.02311334100767,
        "RAAN(deg)": 339.99569922341675,
        "Satellite Name": "Constellation 1 1508",
        "Satellite Number": 1508,
        "Semi-Major Axis(m)": 7083131.272910544,
        "Time(s)": 76
    },
    {
        "Altitude(m)": 706541.5846166795,
        "Argument of Periapsis(deg)": 0.004615996480896233,
        "Eccentricity": 0.0,
        "Inclination(deg)": 45.0,
        "Latitude(deg)": -14.844202562071965,
        "Longitude(deg)": 74.9893325598343,
        "Mean Anomaly(deg)": -158.96241220075783,
        "RAAN(deg)": 339.9956426342512,
        "Satellite Name": "Constellation 1 1508",
        "Satellite Number": 1508,
        "Semi-Major Axis(m)": 7083131.272910544,
        "Time(s)": 77
    },
    {
        "Altitude(m)": 706553.3543582696,
        "Argument of Periapsis(deg)": 0.004675944487141638,
        "Eccentricity": 0.0,
        "Inclination(deg)": 45.0,
        "Latitude(deg)": -14.885828168674381,
        "Longitude(deg)": 75.03104711119224,
        "Mean Anomaly(deg)": -158.90171106050792,
        "RAAN(deg)": 339.9955860450856,
        "Satellite Name": "Constellation 1 1508",
        "Satellite Number": 1508,
        "Semi-Major Axis(m)": 7083131.272910544,
        "Time(s)": 78
    },
    {
        "Altitude(m)": 706565.1371373794,
        "Argument of Periapsis(deg)": 0.004735892493387044,
        "Eccentricity": 0.0,
        "Inclination(deg)": 45.0,
        "Latitude(deg)": -14.927444373785889,
        "Longitude(deg)": 75.0727791365913,
        "Mean Anomaly(deg)": -158.84100992025796,
        "RAAN(deg)": 339.99552945592,
        "Satellite Name": "Constellation 1 1508",
        "Satellite Number": 1508,
        "Semi-Major Axis(m)": 7083131.272910544,
        "Time(s)": 79
    },
    {
        "Altitude(m)": 706576.9329184187,
        "Argument of Periapsis(deg)": 0.004795840499632449,
        "Eccentricity": 0.0,
        "Inclination(deg)": 45.0,
        "Latitude(deg)": -14.9690511468339,
        "Longitude(deg)": 75.11452869016072,
        "Mean Anomaly(deg)": -158.78030878000803,
        "RAAN(deg)": 339.9954728667545,
        "Satellite Name": "Constellation 1 1508",
        "Satellite Number": 1508,
        "Semi-Major Axis(m)": 7083131.272910544,
        "Time(s)": 80
    },
    {
        "Altitude(m)": 706588.7416657365,
        "Argument of Periapsis(deg)": 0.004855788505877855,
        "Eccentricity": 0.0,
        "Inclination(deg)": 45.0,
        "Latitude(deg)": -15.01064845721205,
        "Longitude(deg)": 75.15629582605968,
        "Mean Anomaly(deg)": -158.71960763975815,
        "RAAN(deg)": 339.9954162775889,
        "Satellite Name": "Constellation 1 1508",
        "Satellite Number": 1508,
        "Semi-Major Axis(m)": 7083131.272910544,
        "Time(s)": 81
    },
    {
        "Altitude(m)": 706600.5633436168,
        "Argument of Periapsis(deg)": 0.00491573651212326,
        "Eccentricity": 0.0,
        "Inclination(deg)": 45.0,
        "Latitude(deg)": -15.052236274280265,
        "Longitude(deg)": 75.19808043037975,
        "Mean Anomaly(deg)": -158.6589064995083,
        "RAAN(deg)": 339.9953596884233,
        "Satellite Name": "Constellation 1 1508",
        "Satellite Number": 1508,
        "Semi-Major Axis(m)": 7083131.272910544,
        "Time(s)": 82
    },
    {
        "Altitude(m)": 706612.3979162804,
        "Argument of Periapsis(deg)": 0.004975684518368666,
        "Eccentricity": 0.0,
        "Inclination(deg)": 45.0,
        "Latitude(deg)": -15.09381456736411,
        "Longitude(deg)": 75.23988289353318,
        "Mean Anomaly(deg)": -158.59820535925843,
        "RAAN(deg)": 339.99530309925774,
        "Satellite Name": "Constellation 1 1508",
        "Satellite Number": 1508,
        "Semi-Major Axis(m)": 7083131.272910544,
        "Time(s)": 83
    },
    {
        "Altitude(m)": 706624.2453478692,
        "Argument of Periapsis(deg)": 0.005035632524614072,
        "Eccentricity": 0.0,
        "Inclination(deg)": 45.0,
        "Latitude(deg)": -15.135383305755399,
        "Longitude(deg)": 75.28170310167097,
        "Mean Anomaly(deg)": -158.53750421900847,
        "RAAN(deg)": 339.99524651009216,
        "Satellite Name": "Constellation 1 1508",
        "Satellite Number": 1508,
        "Semi-Major Axis(m)": 7083131.272910544,
        "Time(s)": 84
    },
    {
        "Altitude(m)": 706636.1056024818,
        "Argument of Periapsis(deg)": 0.0050955805308594785,
        "Eccentricity": 0.0,
        "Inclination(deg)": 45.0,
        "Latitude(deg)": -15.176942458711366,
        "Longitude(deg)": 75.32354110907048,
        "Mean Anomaly(deg)": -158.47680307875862,
        "RAAN(deg)": 339.99518992092663,
        "Satellite Name": "Constellation 1 1508",
        "Satellite Number": 1508,
        "Semi-Major Axis(m)": 7083131.272910544,
        "Time(s)": 85
    },
    {
        "Altitude(m)": 706647.9786441318,
        "Argument of Periapsis(deg)": 0.005155528537104883,
        "Eccentricity": 0.0,
        "Inclination(deg)": 45.0,
        "Latitude(deg)": -15.21849199545516,
        "Longitude(deg)": 75.36539697003899,
        "Mean Anomaly(deg)": -158.41610193850866,
        "RAAN(deg)": 339.99513333176105,
        "Satellite Name": "Constellation 1 1508",
        "Satellite Number": 1508,
        "Semi-Major Axis(m)": 7083131.272910544,
        "Time(s)": 86
    },
    {
        "Altitude(m)": 706659.8644367829,
        "Argument of Periapsis(deg)": 0.0052154765433502885,
        "Eccentricity": 0.0,
        "Inclination(deg)": 45.0,
        "Latitude(deg)": -15.260031885175307,
        "Longitude(deg)": 75.40727073891357,
        "Mean Anomaly(deg)": -158.3554007982588,
        "RAAN(deg)": 339.9950767425955,
        "Satellite Name": "Constellation 1 1508",
        "Satellite Number": 1508,
        "Semi-Major Axis(m)": 7083131.272910544,
        "Time(s)": 87
    },
    {
        "Altitude(m)": 706671.762944326,
        "Argument of Periapsis(deg)": 0.005275424549595694,
        "Eccentricity": 0.0,
        "Inclination(deg)": 45.0,
        "Latitude(deg)": -15.301562097025876,
        "Longitude(deg)": 75.4491624700608,
        "Mean Anomaly(deg)": -158.2946996580089,
        "RAAN(deg)": 339.9950201534299,
        "Satellite Name": "Constellation 1 1508",
        "Satellite Number": 1508,
        "Semi-Major Axis(m)": 7083131.272910544,
        "Time(s)": 88
    },
    {
        "Altitude(m)": 706683.6741305917,
        "Argument of Periapsis(deg)": 0.0053353725558411,
        "Eccentricity": 0.0,
        "Inclination(deg)": 45.0,
        "Latitude(deg)": -15.343082600126378,
        "Longitude(deg)": 75.4910720497803,
        "Mean Anomaly(deg)": -158.23399851775895,
        "RAAN(deg)": 339.9949635642643,
        "Satellite Name": "Constellation 1 1508",
        "Satellite Number": 1508,
        "Semi-Major Axis(m)": 7083131.272910544,
        "Time(s)": 89
    },
    {
        "Altitude(m)": 706695.5979593396,
        "Argument of Periapsis(deg)": 0.005395320562086505,
        "Eccentricity": 0.0,
        "Inclination(deg)": 45.0,
        "Latitude(deg)": -15.384593363561022,
        "Longitude(deg)": 75.5329998686922,
        "Mean Anomaly(deg)": -158.1732973775091,
        "RAAN(deg)": 339.9949069750988,
        "Satellite Name": "Constellation 1 1508",
        "Satellite Number": 1508,
        "Semi-Major Axis(m)": 7083131.272910544,
        "Time(s)": 90
    },
    {
        "Altitude(m)": 706707.5343942762,
        "Argument of Periapsis(deg)": 0.00545526856833191,
        "Eccentricity": 0.0,
        "Inclination(deg)": 45.0,
        "Latitude(deg)": -15.426094356379645,
        "Longitude(deg)": 75.57494581315571,
        "Mean Anomaly(deg)": -158.11259623725925,
        "RAAN(deg)": 339.9948503859332,
        "Satellite Name": "Constellation 1 1508",
        "Satellite Number": 1508,
        "Semi-Major Axis(m)": 7083131.272910544,
        "Time(s)": 91
    },
    {
        "Altitude(m)": 706719.4833990419,
        "Argument of Periapsis(deg)": 0.005515216574577317,
        "Eccentricity": 0.0,
        "Inclination(deg)": 45.0,
        "Latitude(deg)": -15.467585547597015,
        "Longitude(deg)": 75.61690993765681,
        "Mean Anomaly(deg)": -158.0518950970093,
        "RAAN(deg)": 339.9947937967676,
        "Satellite Name": "Constellation 1 1508",
        "Satellite Number": 1508,
        "Semi-Major Axis(m)": 7083131.272910544,
        "Time(s)": 92
    },
    {
        "Altitude(m)": 706731.4449372032,
        "Argument of Periapsis(deg)": 0.005575164580822722,
        "Eccentricity": 0.0,
        "Inclination(deg)": 45.0,
        "Latitude(deg)": -15.509066906192599,
        "Longitude(deg)": 75.65889229671124,
        "Mean Anomaly(deg)": -157.99119395675936,
        "RAAN(deg)": 339.9947372076021,
        "Satellite Name": "Constellation 1 1508",
        "Satellite Number": 1508,
        "Semi-Major Axis(m)": 7083131.272910544,
        "Time(s)": 93
    },
    {
        "Altitude(m)": 706743.4189722707,
        "Argument of Periapsis(deg)": 0.005635112587068129,
        "Eccentricity": 0.0,
        "Inclination(deg)": 45.0,
        "Latitude(deg)": -15.550538401110563,
        "Longitude(deg)": 75.7008929448645,
        "Mean Anomaly(deg)": -157.93049281650957,
        "RAAN(deg)": 339.99468061843646,
        "Satellite Name": "Constellation 1 1508",
        "Satellite Number": 1508,
        "Semi-Major Axis(m)": 7083131.272910544,
        "Time(s)": 94
    }
]